STARLINK-1973           
1 47628U 21012J   26068.27562058  .00012450  00000+0  43146-3 0  9992
2 47628  53.1604  66.9145 0001447  99.2060 260.9105 15.30222617280025
GLOBAL-34               
1 68098U 26043A   26068.47466435  .00014018  00000+0  45822-3 0  9994
2 68098  42.0215  76.7399 0006884 289.2632  70.7460 15.31488019   538
